IRIDIUM 150             
1 43257U 18030J   24279.74322621  .00000129  00000+0  38904-4 0  9993
2 43257  86.4048 189.3553 0002463  90.1105 270.0373 14.34216228341371
IRIDIUM 143             
1 43258U 18030K   24279.79397054  .00000485  00000+0  16629-3 0  9995
2 43258  86.4047 189.4024 0002522  91.3244 268.8241 14.34216730341319
IRIDIUM 161             
1 43478U 18047C   24279.90596885  .00000856  00000+0  24862-3 0  9993
2 43478  86.4539 347.2834 0001966  96.6950 263.4475 14.43262628335810
IRIDIUM 152             
1 43479U 18047D   24279.90622839  .00000374  00000+0  12644-3 0  9993
2 43479  86.4013 347.1422 0002124  94.8275 265.3164 14.34218805333729
IRIDIUM 147             
1 43480U 18047E   24279.70325690  .00000217  00000+0  70416-4 0  9996
2 43480  86.4015 347.2210 0001789  91.5396 268.6004 14.34213662333694
IRIDIUM 110             
1 43481U 18047F   24279.70960750  .00000213  00000+0  69089-4 0  9999
2 43481  86.4016 347.2945 0001595  94.7540 265.3838 14.34218252333680
IRIDIUM 162             
1 43482U 18047G   24279.89964285  .00002064  00000+0  60745-3 0  9992
2 43482  86.4537 347.1844 0001695  93.3875 266.7519 14.43281194335805
IRIDIUM 160             
1 43569U 18061A   24279.86475015  .00000040  00000+0  71596-5 0  9999
2 43569  86.3953 315.6105 0001935  87.6836 272.4582 14.34215055324605
